OBJECT_NAME,OBJECT_ID,EPOCH,MEAN_MOTION,ECCENTRICITY,INCLINATION,RA_OF_ASC_NODE,ARG_OF_PERICENTER,MEAN_ANOMALY,EPHEMERIS_TYPE,CLASSIFICATION_TYPE,NORAD_CAT_ID,ELEMENT_SET_NO,REV_AT_EPOCH,BSTAR,MEAN_MOTION_DOT,MEAN_MOTION_DDOT
GUOWANG OBJECT C,2026-137C,2026-06-18T22:52:36.181056,13.92373962,.0011688,49.9989,248.3658,230.8714,129.1147,0,U,69574,999,27,.20360533E-4,-.121E-5,0
GUOWANG OBJECT D,2026-137D,2026-06-18T22:52:32.128896,13.92409653,.00112763,49.9990,248.3661,232.2564,127.7314,0,U,69575,999,27,.20344375E-4,-.121E-5,0
GUOWANG OBJECT E,2026-137E,2026-06-18T17:42:25.689312,13.92445799,.00109957,50.0064,249.2371,233.6925,126.2959,0,U,69576,999,24,.22104084E-4,-.118E-5,0
GUOWANG OBJECT F,2026-137F,2026-06-18T17:42:12.930624,13.92572456,.00107752,50.0048,249.2387,234.1327,125.8573,0,U,69577,999,24,.22057143E-4,-.118E-5,0
GUOWANG OBJECT G,2026-137G,2026-06-18T22:52:10.191072,13.92602725,.00103444,49.9995,248.3614,235.5707,124.4216,0,U,69578,999,27,.20353619E-4,-.121E-5,0
GUOWANG OBJECT H,2026-137H,2026-06-18T19:25:23.723040,13.92663545,.00100354,50.0022,248.9410,238.2751,121.7171,0,U,69579,999,25,.20947591E-4,-.12E-5,0
GUOWANG OBJECT J,2026-137J,2026-06-18T22:51:47.100672,13.92808980,.0009559,50.0016,248.3619,233.0532,126.9493,0,U,69580,999,27,.20321072E-4,-.121E-5,0
CENTISPACE-1 GROUP 05 OBJECT A,2026-138A,2026-06-18T20:04:04.631808,14.15572651,.00099377,55.1435,275.0649,279.4905,80.4945,0,U,69582,999,25,.9419612E-5,-.135E-5,0
CENTISPACE-1 GROUP 05 OBJECT B,2026-138B,2026-06-18T11:35:25.266912,14.15750919,.0009095,55.1443,276.3679,279.3206,80.6740,0,U,69583,999,20,.2203E-4,-.11E-5,0
CENTISPACE-1 GROUP 05 OBJECT C,2026-138C,2026-06-18T11:35:19.171392,14.15830371,.0008531,55.1452,276.3744,279.2700,80.7310,0,U,69584,999,20,.23745E-4,-.107E-5,0
CENTISPACE-1 GROUP 05 OBJECT D,2026-138D,2026-06-18T23:26:48.359040,14.15929045,.00082659,55.1437,274.5365,281.2167,78.7878,0,U,69585,999,27,.12713794E-4,-.128E-5,0
CENTISPACE-1 GROUP 05 OBJECT E,2026-138E,2026-06-18T23:26:41.338176,14.15995083,.00079673,55.1434,274.5436,281.7302,78.2778,0,U,69586,999,27,.14115613E-3,.126E-5,0
CENTISPACE-1 GROUP 05 OBJECT F,2026-138F,2026-06-18T09:53:26.572704,14.16000241,.0008297,55.1465,276.6321,285.7708,74.2351,0,U,69587,999,19,.28096E-4,-.98E-6,0
CENTISPACE-1 GROUP 05 OBJECT G,2026-138G,2026-06-18T11:34:52.663872,14.16170753,.000705,55.1448,276.3650,279.9943,80.0236,0,U,69588,999,20,.29348E-4,-.95E-6,0
SPACEMOBILE-008,2026-139A,2026-06-18T22:11:47.809824,15.12495403,.00034528,52.9947,254.6788,325.8605,34.2163,0,U,69589,999,25,.23571888E-4,.115E-5,0
SPACEMOBILE-009,2026-139B,2026-06-18T22:11:32.332992,15.12664173,.00035628,52.9928,254.6760,338.0139,22.0699,0,U,69590,999,24,.16555398E-4,-.8E-7,0
SPACEMOBILE-010,2026-139C,2026-06-18T20:36:14.577984,15.12770758,.00033546,52.9950,254.9776,344.2743,15.8143,0,U,69591,999,23,.37862584E-4,.371E-5,0
