GUOWANG OBJECT C        
1 69574U 26137C   26169.95319654 -.00000121  00000+0  20361-4 0  9996
2 69574  49.9989 248.3658 0011688 230.8714 129.1147 13.92373962   275
GUOWANG OBJECT D        
1 69575U 26137D   26169.95314964 -.00000121  00000+0  20344-4 0  9997
2 69575  49.9990 248.3661 0011276 232.2564 127.7314 13.92409653   271
GUOWANG OBJECT E        
1 69576U 26137E   26169.73779733 -.00000118  00000+0  22104-4 0  9995
2 69576  50.0064 249.2371 0010995 233.6925 126.2959 13.92445799   245
GUOWANG OBJECT F        
1 69577U 26137F   26169.73764966 -.00000118  00000+0  22057-4 0  9995
2 69577  50.0048 249.2387 0010775 234.1327 125.8573 13.92572456   241
GUOWANG OBJECT G        
1 69578U 26137G   26169.95289573 -.00000121  00000+0  20354-4 0  9998
2 69578  49.9995 248.3614 0010344 235.5707 124.4216 13.92602725   277
GUOWANG OBJECT H        
1 69579U 26137H   26169.80930235 -.00000120  00000+0  20948-4 0  9999
2 69579  50.0022 248.9410 0010035 238.2751 121.7171 13.92663545   253
GUOWANG OBJECT J        
1 69580U 26137J   26169.95262848 -.00000121  00000+0  20321-4 0  9991
2 69580  50.0016 248.3619 0009559 233.0532 126.9493 13.92808980   272
CENTISPACE-1 GROUP 05 O*
1 69582U 26138A   26169.83616472 -.00000135  00000+0  94196-5 0  9994
2 69582  55.1435 275.0649 0009937 279.4905  80.4945 14.15572651   256
CENTISPACE-1 GROUP 05 O*
1 69583U 26138B   26169.48293133 -.00000110  00000+0  22030-4 0  9991
2 69583  55.1443 276.3679 0009095 279.3206  80.6740 14.15750919   206
CENTISPACE-1 GROUP 05 O*
1 69584U 26138C   26169.48286078 -.00000107  00000+0  23745-4 0  9992
2 69584  55.1452 276.3744 0008531 279.2700  80.7310 14.15830371   207
CENTISPACE-1 GROUP 05 O*
1 69585U 26138D   26169.97694860 -.00000128  00000+0  12714-4 0  9996
2 69585  55.1437 274.5365 0008265 281.2167  78.7878 14.15929045   274
CENTISPACE-1 GROUP 05 O*
1 69586U 26138E   26169.97686734  .00000126  00000+0  14116-3 0  9992
2 69586  55.1434 274.5436 0007967 281.7302  78.2778 14.15995083   274
CENTISPACE-1 GROUP 05 O*
1 69587U 26138F   26169.41211311 -.00000098  00000+0  28096-4 0  9999
2 69587  55.1465 276.6321 0008297 285.7708  74.2351 14.16000241   194
CENTISPACE-1 GROUP 05 O*
1 69588U 26138G   26169.48255398 -.00000095  00000+0  29348-4 0  9998
2 69588  55.1448 276.3650 0007050 279.9943  80.0236 14.16170753   205
SPACEMOBILE-008         
1 69589U 26139A   26169.92485891  .00000115  00000+0  23572-4 0  9997
2 69589  52.9947 254.6788 0003452 325.8605  34.2163 15.12495403   258
SPACEMOBILE-009         
1 69590U 26139B   26169.92467978 -.00000008  00000+0  16555-4 0  9990
2 69590  52.9928 254.6760 0003562 338.0139  22.0699 15.12664173   249
SPACEMOBILE-010         
1 69591U 26139C   26169.85850206  .00000371  00000+0  37863-4 0  9990
2 69591  52.9950 254.9776 0003354 344.2743  15.8143 15.12770758   234
